{
  "type": "FeatureCollection",
  "features": [
    {
      "type": "Feature",
      "properties": {
        "norad_id": 31089,
        "name": "FENGYUN 1C DEB",
        "group": "fengyun-1c-debris",
        "lat": 75.44096456715792,
        "lon": -19.20816850688737,
        "alt_km": 1012.1579318989425,
        "timestamp": "2025-12-07T03:52:32.777780+00:00",
        "meta_object_name": "FENGYUN 1C DEB",
        "meta_object_id": "1999-025BGK",
        "meta_epoch": "2025-12-06T08:29:26.509920",
        "meta_mean_motion": 13.88300569,
        "meta_eccentricity": 0.02057982,
        "meta_inclination": 98.9494,
        "meta_ra_of_asc_node": 122.6635,
        "meta_arg_of_pericenter": 228.9439,
        "meta_mean_anomaly": 159.847,
        "meta_ephemeris_type": 0,
        "meta_classification_type": "U",
        "meta_norad_cat_id": 31089,
        "meta_element_set_no": 999,
        "meta_rev_at_epoch": 67971,
        "meta_bstar": 0.0014132565,
        "meta_mean_motion_dot": 1.96e-05,
        "meta_mean_motion_ddot": 0,
        "tle_line1": "1 31089U 99025BGK 25340.35377905  .00001960  00000+0  14133-2 0  9998",
        "tle_line2": "2 31089  98.9494 122.6635 0205798 228.9439 159.8470 13.88300569679716"
      },
      "geometry": {
        "type": "Point",
        "coordinates": [
          -19.20816850688737,
          75.44096456715792
        ]
      }
    },
    {
      "type": "Feature",
      "properties": {
        "norad_id": 31090,
        "name": "FENGYUN 1C DEB",
        "group": "fengyun-1c-debris",
        "lat": 20.947179913426194,
        "lon": -92.51595052499316,
        "alt_km": 429.8111200338926,
        "timestamp": "2025-12-07T03:52:32.777790+00:00",
        "meta_object_name": "FENGYUN 1C DEB",
        "meta_object_id": "1999-025BGL",
        "meta_epoch": "2025-12-06T05:14:48.524352",
        "meta_mean_motion": 15.32296611,
        "meta_eccentricity": 0.00568944,
        "meta_inclination": 98.9863,
        "meta_ra_of_asc_node": 82.8679,
        "meta_arg_of_pericenter": 155.4417,
        "meta_mean_anomaly": 204.9549,
        "meta_ephemeris_type": 0,
        "meta_classification_type": "U",
        "meta_norad_cat_id": 31090,
        "meta_element_set_no": 999,
        "meta_rev_at_epoch": 738,
        "meta_bstar": 0.0026151531,
        "meta_mean_motion_dot": 0.00086567,
        "meta_mean_motion_ddot": 0,
        "tle_line1": "1 31090U 99025BGL 25340.21861718  .00086567  00000+0  26152-2 0  9995",
        "tle_line2": "2 31090  98.9863  82.8679 0056894 155.4417 204.9549 15.32296611  7384"
      },
      "geometry": {
        "type": "Point",
        "coordinates": [
          -92.51595052499316,
          20.947179913426194
        ]
      }
    },
    {
      "type": "Feature",
      "properties": {
        "norad_id": 31091,
        "name": "FENGYUN 1C DEB",
        "group": "fengyun-1c-debris",
        "lat": -46.3578081885196,
        "lon": -31.607609683571166,
        "alt_km": 875.1974680054427,
        "timestamp": "2025-12-07T03:52:32.777800+00:00",
        "meta_object_name": "FENGYUN 1C DEB",
        "meta_object_id": "1999-025BGM",
        "meta_epoch": "2025-12-05T16:37:51.123648",
        "meta_mean_motion": 13.54131389,
        "meta_eccentricity": 0.02909862,
        "meta_inclination": 99.2239,
        "meta_ra_of_asc_node": 317.2108,
        "meta_arg_of_pericenter": 346.8703,
        "meta_mean_anomaly": 12.4975,
        "meta_ephemeris_type": 0,
        "meta_classification_type": "U",
        "meta_norad_cat_id": 31091,
        "meta_element_set_no": 999,
        "meta_rev_at_epoch": 61544,
        "meta_bstar": 0.0015194741,
        "meta_mean_motion_dot": 1.309e-05,
        "meta_mean_motion_ddot": 0,
        "tle_line1": "1 31091U 99025BGM 25339.69295282  .00001309  00000+0  15195-2 0  9999",
        "tle_line2": "2 31091  99.2239 317.2108 0290986 346.8703  12.4975 13.54131389615443"
      },
      "geometry": {
        "type": "Point",
        "coordinates": [
          -31.607609683571166,
          -46.3578081885196
        ]
      }
    },
    {
      "type": "Feature",
      "properties": {
        "norad_id": 31092,
        "name": "FENGYUN 1C DEB",
        "group": "fengyun-1c-debris",
        "lat": 68.55139366403003,
        "lon": -57.01251020740175,
        "alt_km": 891.0105311570942,
        "timestamp": "2025-12-07T03:52:32.777811+00:00",
        "meta_object_name": "FENGYUN 1C DEB",
        "meta_object_id": "1999-025BGN",
        "meta_epoch": "2025-11-15T07:00:52.552224",
        "meta_mean_motion": 13.46401433,
        "meta_eccentricity": 0.03278725,
        "meta_inclination": 99.7115,
        "meta_ra_of_asc_node": 75.9227,
        "meta_arg_of_pericenter": 204.4209,
        "meta_mean_anomaly": 154.1084,
        "meta_ephemeris_type": 0,
        "meta_classification_type": "U",
        "meta_norad_cat_id": 31092,
        "meta_element_set_no": 999,
        "meta_rev_at_epoch": 91512,
        "meta_bstar": 0.0042000132,
        "meta_mean_motion_dot": 3.457e-05,
        "meta_mean_motion_ddot": 0,
        "tle_line1": "1 31092U 99025BGN 25319.29227491  .00003457  00000+0  42000-2 0  9992",
        "tle_line2": "2 31092  99.7115  75.9227 0327872 204.4209 154.1084 13.46401433915121"
      },
      "geometry": {
        "type": "Point",
        "coordinates": [
          -57.01251020740175,
          68.55139366403003
        ]
      }
    },
    {
      "type": "Feature",
      "properties": {
        "norad_id": 31093,
        "name": "FENGYUN 1C DEB",
        "group": "fengyun-1c-debris",
        "lat": -54.52418055298635,
        "lon": -167.08873863747664,
        "alt_km": 904.4784958066639,
        "timestamp": "2025-12-07T03:52:32.777821+00:00",
        "meta_object_name": "FENGYUN 1C DEB",
        "meta_object_id": "1999-025BGP",
        "meta_epoch": "2025-12-05T19:05:51.065952",
        "meta_mean_motion": 13.80620951,
        "meta_eccentricity": 0.02081596,
        "meta_inclination": 98.5954,
        "meta_ra_of_asc_node": 179.4149,
        "meta_arg_of_pericenter": 242.0633,
        "meta_mean_anomaly": 115.9311,
        "meta_ephemeris_type": 0,
        "meta_classification_type": "U",
        "meta_norad_cat_id": 31093,
        "meta_element_set_no": 999,
        "meta_rev_at_epoch": 94411,
        "meta_bstar": 0.00075404882,
        "meta_mean_motion_dot": 8.92e-06,
        "meta_mean_motion_ddot": 0,
        "tle_line1": "1 31093U 99025BGP 25339.79572993  .00000892  00000+0  75405-3 0  9996",
        "tle_line2": "2 31093  98.5954 179.4149 0208159 242.0633 115.9311 13.80620951944113"
      },
      "geometry": {
        "type": "Point",
        "coordinates": [
          -167.08873863747664,
          -54.52418055298635
        ]
      }
    },
    {
      "type": "Feature",
      "properties": {
        "norad_id": 31094,
        "name": "FENGYUN 1C DEB",
        "group": "fengyun-1c-debris",
        "lat": -3.5188057828135912,
        "lon": -150.27709681705238,
        "alt_km": 857.8397750330423,
        "timestamp": "2025-12-07T03:52:32.777831+00:00",
        "meta_object_name": "FENGYUN 1C DEB",
        "meta_object_id": "1999-025BGQ",
        "meta_epoch": "2025-12-06T14:11:25.470528",
        "meta_mean_motion": 14.02004209,
        "meta_eccentricity": 0.01064276,
        "meta_inclination": 98.8561,
        "meta_ra_of_asc_node": 208.6197,
        "meta_arg_of_pericenter": 63.9758,
        "meta_mean_anomaly": 297.2321,
        "meta_ephemeris_type": 0,
        "meta_classification_type": "U",
        "meta_norad_cat_id": 31094,
        "meta_element_set_no": 999,
        "meta_rev_at_epoch": 95533,
        "meta_bstar": 0.0023624434,
        "meta_mean_motion_dot": 3.745e-05,
        "meta_mean_motion_ddot": 0,
        "tle_line1": "1 31094U 99025BGQ 25340.59126702  .00003745  00000+0  23624-2 0  9995",
        "tle_line2": "2 31094  98.8561 208.6197 0106427  63.9758 297.2321 14.02004209955330"
      },
      "geometry": {
        "type": "Point",
        "coordinates": [
          -150.27709681705238,
          -3.5188057828135912
        ]
      }
    },
    {
      "type": "Feature",
      "properties": {
        "norad_id": 31095,
        "name": "FENGYUN 1C DEB",
        "group": "fengyun-1c-debris",
        "lat": -22.16720733523662,
        "lon": -58.803209464677636,
        "alt_km": 861.1165286569349,
        "timestamp": "2025-12-07T03:52:32.777841+00:00",
        "meta_object_name": "FENGYUN 1C DEB",
        "meta_object_id": "1999-025BGR",
        "meta_epoch": "2025-12-03T05:06:12.521952",
        "meta_mean_motion": 13.06661132,
        "meta_eccentricity": 0.0499779,
        "meta_inclination": 98.5614,
        "meta_ra_of_asc_node": 121.5529,
        "meta_arg_of_pericenter": 214.6633,
        "meta_mean_anomaly": 142.0948,
        "meta_ephemeris_type": 0,
        "meta_classification_type": "U",
        "meta_norad_cat_id": 31095,
        "meta_element_set_no": 999,
        "meta_rev_at_epoch": 89323,
        "meta_bstar": 0.00017519,
        "meta_mean_motion_dot": 7.3e-07,
        "meta_mean_motion_ddot": 0,
        "tle_line1": "1 31095U 99025BGR 25337.21264493  .00000073  00000+0  17519-3 0  9999",
        "tle_line2": "2 31095  98.5614 121.5529 0499779 214.6633 142.0948 13.06661132893230"
      },
      "geometry": {
        "type": "Point",
        "coordinates": [
          -58.803209464677636,
          -22.16720733523662
        ]
      }
    }
  ]
}